[{"OBJECT_NAME":"STARLINK-4147","OBJECT_ID":"2022-086Q","EPOCH":"2026-03-09T15:05:16.586880","MEAN_MOTION":15.08827019,"ECCENTRICITY":0.0001418,"INCLINATION":53.2181,"RA_OF_ASC_NODE":194.3966,"ARG_OF_PERICENTER":94.1982,"MEAN_ANOMALY":265.9172,"EPHEMERIS_TYPE":0,"CLASSIFICATION_TYPE":"U","NORAD_CAT_ID":53256,"ELEMENT_SET_NO":999,"REV_AT_EPOCH":20105,"BSTAR":0.00013635,"MEAN_MOTION_DOT":1.882e-5,"MEAN_MOTION_DDOT":0},{"OBJECT_NAME":"TIUNGSAT-1 (MO-46)","OBJECT_ID":"2000-057D","EPOCH":"2026-03-09T15:36:52.176096","MEAN_MOTION":15.01128781,"ECCENTRICITY":0.003692,"INCLINATION":64.5465,"RA_OF_ASC_NODE":82.7132,"ARG_OF_PERICENTER":302.2682,"MEAN_ANOMALY":57.4857,"EPHEMERIS_TYPE":0,"CLASSIFICATION_TYPE":"U","NORAD_CAT_ID":26548,"ELEMENT_SET_NO":999,"REV_AT_EPOCH":38128,"BSTAR":0.00030184,"MEAN_MOTION_DOT":3.762e-5,"MEAN_MOTION_DDOT":0}]
